[{"OBJECT_NAME":"ZHUHAI-1 03E","OBJECT_ID":"2019-060F","EPOCH":"2026-03-09T22:00:09.912096","MEAN_MOTION":15.3740444,"ECCENTRICITY":0.00060218,"INCLINATION":97.5464,"RA_OF_ASC_NODE":215.7681,"ARG_OF_PERICENTER":27.0132,"MEAN_ANOMALY":333.1424,"EPHEMERIS_TYPE":0,"CLASSIFICATION_TYPE":"U","NORAD_CAT_ID":44539,"ELEMENT_SET_NO":999,"REV_AT_EPOCH":36049,"BSTAR":0.00065441196,"MEAN_MOTION_DOT":0.00023971,"MEAN_MOTION_DDOT":0},{"OBJECT_NAME":"STARLINK-30146","OBJECT_ID":"2023-105N","EPOCH":"2026-03-09T22:00:01.999584","MEAN_MOTION":15.24370985,"ECCENTRICITY":9.65e-5,"INCLINATION":42.9993,"RA_OF_ASC_NODE":258.5873,"ARG_OF_PERICENTER":307.2589,"MEAN_ANOMALY":147.706,"EPHEMERIS_TYPE":0,"CLASSIFICATION_TYPE":"U","NORAD_CAT_ID":57442,"ELEMENT_SET_NO":999,"REV_AT_EPOCH":578,"BSTAR":0.033241649,"MEAN_MOTION_DOT":0.00895133,"MEAN_MOTION_DDOT":0}]
